OBJECT_NAME,OBJECT_ID,EPOCH,MEAN_MOTION,ECCENTRICITY,INCLINATION,RA_OF_ASC_NODE,ARG_OF_PERICENTER,MEAN_ANOMALY,EPHEMERIS_TYPE,CLASSIFICATION_TYPE,NORAD_CAT_ID,ELEMENT_SET_NO,REV_AT_EPOCH,BSTAR,MEAN_MOTION_DOT,MEAN_MOTION_DDOT
H2SAT (HEINRICH HERTZ),2023-093A,2026-07-05T00:09:18.501696,1.00270320,.00011835,0.0211,100.0910,30.0811,155.8744,0,U,57213,999,1109,0,.15E-6,0
SYRACUSE 4B,2023-093B,2026-07-05T04:10:38.551584,1.00269622,.0000398,0.0218,44.4028,169.6987,125.2736,0,U,57214,999,714,0,0,0
JUPITER 3 (ECHOSTAR 24),2023-108A,2026-07-04T11:30:59.166144,1.00271770,.00010082,0.0229,33.1177,67.1961,259.6976,0,U,57479,999,1082,0,0,0
GALAXY 37 (G-37),2023-112A,2026-07-05T04:41:00.434688,1.00270558,.00018769,0.0208,32.4029,81.2155,112.8289,0,U,57493,999,1072,0,0,0
LUDI TANCE-4 01A,2023-120A,2026-07-05T00:34:38.573184,1.00265894,.00015079,15.0930,193.5313,25.1741,162.4356,0,U,57624,999,1072,0,-.16E-5,0
TJS-10,2023-169A,2026-07-02T18:00:47.329920,1.00269643,.0004215,2.5821,80.3140,104.6482,98.4495,0,U,58204,999,969,0,-.239E-5,0
ZHONGXING-6E,2023-172A,2026-07-05T07:32:43.641600,1.00266731,.00023184,0.0123,24.9009,81.6755,45.4406,0,U,58253,999,984,0,0,0
YAOGAN-41,2023-197A,2026-07-05T07:34:58.427328,1.00271654,.00143684,3.0970,313.4005,196.9393,9.9327,0,U,58582,999,950,0,-.348E-5,0
OVZON-3,2024-003A,2026-07-04T23:30:38.741184,1.00271034,.00003171,0.0030,78.2376,303.9360,313.1649,0,U,58698,999,762,0,.64E-6,0
INSAT-3DS,2024-033A,2026-07-05T03:03:38.624832,1.00273143,.00012284,0.0769,96.2144,14.7334,300.1498,0,U,58990,999,4724,0,-.143E-5,0
MERAH PUTIH 2,2024-035A,2026-07-05T00:41:22.926912,1.00269171,.00011027,0.0158,33.3781,77.8540,295.1047,0,U,58995,999,876,0,0,0
TJS-11,2024-037A,2026-07-04T00:59:38.942880,1.00268018,.0003217,4.1778,327.2753,128.7352,313.5802,0,U,59020,999,875,0,-.35E-5,0
HULIANWAN GAOGUI-01 (HG-01),2024-040A,2026-07-05T00:06:09.976896,1.00275680,.00025875,0.0731,329.2623,77.4641,271.4681,0,U,59069,999,750,0,.169E-5,0
EUTELSAT 36D,2024-059A,2026-07-05T03:44:41.024832,1.00270926,.00002714,0.0212,47.1801,130.0019,197.9931,0,U,59346,999,832,0,0,0
PAKSAT-MM1,2024-104A,2026-07-04T21:02:56.141952,1.00275847,.00023155,0.0357,191.7396,250.2080,194.9028,0,U,59915,999,770,0,.166E-5,0
ASTRA 1P (SES-24),2024-115A,2026-07-04T23:57:34.290720,1.00263033,.00009331,0.0582,336.6521,266.4191,58.5359,0,U,60086,999,737,0,.132E-5,0
GOES 19,2024-119A,2026-07-05T03:13:02.428032,1.00270026,.0000569,0.0158,195.6056,338.2546,82.3341,0,U,60133,999,714,0,-.235E-5,0
ZHONGXING-3A,2024-122A,2026-07-01T14:30:39.981888,1.00276406,.0001711,0.0347,112.7027,13.4089,112.7870,0,U,60179,999,745,0,-.304E-5,0
TURKSAT 6A,2024-127A,2026-07-05T03:46:25.857408,1.00270772,.00027771,0.0142,188.5617,327.3878,225.8085,0,U,60233,999,719,0,0,0
HULIANWAN GAOGUI-02 (HG-02),2024-135A,2026-07-04T18:01:57.180864,1.00231145,.00079823,0.0454,350.6232,2.8010,352.8436,0,U,60327,999,767,0,-.17E-5,0
ZHONGXING-4A,2024-151A,2026-07-04T23:00:13.866048,1.00273604,.00002319,1.2710,270.5923,199.9831,275.6648,0,U,60606,999,693,0,-.349E-5,0
HULIANWAN GAOGUI-03 (HG-03),2024-181A,2026-07-04T20:21:57.890016,1.00269839,.0001338,0.0481,353.5592,106.0614,51.6047,0,U,61503,999,700,0,-.228E-5,0
DSN-3 (KIRAMEKI-3),2024-198A,2026-07-04T23:07:35.660352,1.00270791,.00009976,0.0390,258.9990,231.8095,283.1221,0,U,61733,999,609,0,-.237E-5,0
KOREASAT 6A,2024-206A,2026-07-05T00:42:07.855776,1.00273341,.00010191,0.0232,99.5563,340.2924,329.7199,0,U,61910,999,601,0,-.349E-5,0
OPTUS-X (ADS-01),2024-212A,2026-07-05T06:01:44.296032,1.00271623,.00024009,0.0146,312.3320,191.4469,26.3176,0,U,62006,999,594,0,-.13E-5,0
GSAT-N2 (GSAT-20),2024-214A,2026-07-05T03:53:47.650848,1.00272966,.00020208,0.0747,97.1610,359.6918,312.7224,0,U,62028,999,607,0,-.7E-7,0
SXM-9,2024-234A,2026-07-04T22:02:06.648000,1.00273699,.00049517,0.0198,324.0875,355.3979,208.8178,0,U,62259,999,575,0,-.193E-5,0
TJS-12,2024-246A,2026-07-05T05:58:59.558880,1.00272289,.00020793,0.6333,300.8750,103.4609,115.2222,0,U,62374,999,574,0,-.217E-5,0
NUVIEW ALPHA,2024-252B,2026-07-05T03:10:47.644032,1.00271666,.0001032,0.0469,30.3153,55.8375,161.5678,0,U,62455,999,400,0,-.202E-5,0
AGILA,2024-252C,2026-07-04T21:27:16.150752,1.00270818,.00011407,0.0588,125.0309,9.1454,262.6945,0,U,62456,999,533,0,-.169E-5,0
NUVIEW BRAVO,2024-252D,2026-07-05T03:10:47.644032,1.00272110,.00017201,0.0697,160.8179,346.2761,100.6306,0,U,62457,999,397,0,-.202E-5,0
THURAYA-4,2025-001A,2026-07-05T03:47:10.785408,1.00272470,.00000563,0.0169,64.5054,45.4040,274.3383,0,U,62483,999,435,0,.152E-5,0
