H2SAT (HEINRICH HERTZ)  
1 57213U 23093A   26186.00646414  .00000015  00000+0  00000+0 0  9997
2 57213   0.0211 100.0910 0001183  30.0811 155.8744  1.00270320 11091
SYRACUSE 4B             
1 57214U 23093B   26186.17405731  .00000000  00000+0  00000+0 0  9995
2 57214   0.0218  44.4028 0000398 169.6987 125.2736  1.00269622  7146
JUPITER 3 (ECHOSTAR 24) 
1 57479U 23108A   26185.47985146  .00000000  00000+0  00000+0 0  9990
2 57479   0.0229  33.1177 0001008  67.1961 259.6976  1.00271770 10828
GALAXY 37 (G-37)        
1 57493U 23112A   26186.19514392  .00000000  00000+0  00000+0 0  9992
2 57493   0.0208  32.4029 0001876  81.2155 112.8289  1.00270558 10723
LUDI TANCE-4 01A        
1 57624U 23120A   26186.02405756 -.00000160  00000+0  00000+0 0  9990
2 57624  15.0930 193.5313 0001507  25.1741 162.4356  1.00265894 10724
TJS-10                  
1 58204U 23169A   26183.75054780 -.00000239  00000+0  00000+0 0  9999
2 58204   2.5821  80.3140 0004215 104.6482  98.4495  1.00269643  9696
ZHONGXING-6E            
1 58253U 23172A   26186.31439400  .00000000  00000+0  00000+0 0  9993
2 58253   0.0123  24.9009 0002318  81.6755  45.4406  1.00266731  9841
YAOGAN-41               
1 58582U 23197A   26186.31595402 -.00000348  00000+0  00000+0 0  9996
2 58582   3.0970 313.4005 0014368 196.9393   9.9327  1.00271654  9507
OVZON-3                 
1 58698U 24003A   26185.97961506  .00000064  00000+0  00000+0 0  9998
2 58698   0.0030  78.2376 0000317 303.9360 313.1649  1.00271034  7629
INSAT-3DS               
1 58990U 24033A   26186.12753038 -.00000143  00000+0  00000+0 0  9992
2 58990   0.0769  96.2144 0001228  14.7334 300.1498  1.00273143 47249
MERAH PUTIH 2           
1 58995U 24035A   26186.02873758  .00000000  00000+0  00000+0 0  9991
2 58995   0.0158  33.3781 0001102  77.8540 295.1047  1.00269171  8768
TJS-11                  
1 59020U 24037A   26185.04142295 -.00000350  00000+0  00000+0 0  9998
2 59020   4.1778 327.2753 0003217 128.7352 313.5802  1.00268018  8753
HULIANWAN GAOGUI-01 (H*)
1 59069U 24040A   26186.00428214  .00000169  00000+0  00000+0 0  9997
2 59069   0.0731 329.2623 0002587  77.4641 271.4681  1.00275680  7500
EUTELSAT 36D            
1 59346U 24059A   26186.15603038  .00000000  00000+0  00000+0 0  9994
2 59346   0.0212  47.1801 0000271 130.0019 197.9931  1.00270926  8328
PAKSAT-MM1              
1 59915U 24104A   26185.87703868  .00000166  00000+0  00000+0 0  9990
2 59915   0.0357 191.7396 0002315 250.2080 194.9028  1.00275847  7701
ASTRA 1P (SES-24)       
1 60086U 24115A   26185.99831355  .00000132  00000+0  00000+0 0  9992
2 60086   0.0582 336.6521 0000933 266.4191  58.5359  1.00263033  7377
GOES 19                 
1 60133U 24119A   26186.13405588 -.00000235  00000+0  00000+0 0  9996
2 60133   0.0158 195.6056 0000569 338.2546  82.3341  1.00270026  7143
ZHONGXING-3A            
1 60179U 24122A   26182.60462942 -.00000304  00000+0  00000+0 0  9992
2 60179   0.0347 112.7027 0001711  13.4089 112.7870  1.00276406  7452
TURKSAT 6A              
1 60233U 24127A   26186.15724372  .00000000  00000+0  00000+0 0  9992
2 60233   0.0142 188.5617 0002777 327.3878 225.8085  1.00270772  7193
HULIANWAN GAOGUI-02 (H*)
1 60327U 24135A   26185.75135626 -.00000170  00000+0  00000+0 0  9997
2 60327   0.0454 350.6232 0007982   2.8010 352.8436  1.00231145  7679
ZHONGXING-4A            
1 60606U 24151A   26185.95849382 -.00000349  00000+0  00000+0 0  9996
2 60606   1.2710 270.5923 0000231 199.9831 275.6648  1.00273604  6934
HULIANWAN GAOGUI-03 (H*)
1 61503U 24181A   26185.84858669 -.00000228  00000+0  00000+0 0  9998
2 61503   0.0481 353.5592 0001338 106.0614  51.6047  1.00269839  7003
DSN-3 (KIRAMEKI-3)      
1 61733U 24198A   26185.96360718 -.00000237  00000+0  00000+0 0  9997
2 61733   0.0390 258.9990 0000997 231.8095 283.1221  1.00270791  6090
KOREASAT 6A             
1 61910U 24206A   26186.02925759 -.00000349  00000+0  00000+0 0  9998
2 61910   0.0232  99.5563 0001019 340.2924 329.7199  1.00273341  6016
OPTUS-X (ADS-01)        
1 62006U 24212A   26186.25120713 -.00000130  00000+0  00000+0 0  9992
2 62006   0.0146 312.3320 0002400 191.4469  26.3176  1.00271623  5946
GSAT-N2 (GSAT-20)       
1 62028U 24214A   26186.16235707 -.00000007  00000+0  00000+0 0  9991
2 62028   0.0747  97.1610 0002020 359.6918 312.7224  1.00272966  6074
SXM-9                   
1 62259U 24234A   26185.91813250 -.00000193  00000+0  00000+0 0  9992
2 62259   0.0198 324.0875 0004951 355.3979 208.8178  1.00273699  5751
TJS-12                  
1 62374U 24246A   26186.24930045 -.00000217  00000+0  00000+0 0  9999
2 62374   0.6333 300.8750 0002079 103.4609 115.2222  1.00272289  5745
NUVIEW ALPHA            
1 62455U 24252B   26186.13249588 -.00000202  00000+0  00000+0 0  9993
2 62455   0.0469  30.3153 0001032  55.8375 161.5678  1.00271666  4004
AGILA                   
1 62456U 24252C   26185.89393693 -.00000169  00000+0  00000+0 0  9995
2 62456   0.0588 125.0309 0001140   9.1454 262.6945  1.00270818  5337
NUVIEW BRAVO            
1 62457U 24252D   26186.13249588 -.00000202  00000+0  00000+0 0  9995
2 62457   0.0697 160.8179 0001720 346.2761 100.6306  1.00272110  3978
THURAYA-4               
1 62483U 25001A   26186.15776372  .00000152  00000+0  00000+0 0  9998
2 62483   0.0169  64.5054 0000056  45.4040 274.3383  1.00272470  4358
